{"type": "FeatureCollection", "features": [ {"type": "Feature", "properties": {"norad_id": 32432, "name": "FENGYUN 1C DEB", "group": "fengyun-1c-debris", "lat": -32.935552693973506, "lon": -154.5776193883426, "alt_km": 674.8366962556429, "timestamp": "2025-12-20T18:51:32.000216+00:00", "meta": {"OBJECT_NAME": "FENGYUN 1C DEB", "OBJECT_ID": "1999-025DAU", "EPOCH": "2025-12-19T22:01:28.238880", "MEAN_MOTION": 14.52565689, "ECCENTRICITY": 0.0172607, "INCLINATION": 98.1702, "RA_OF_ASC_NODE": 29.9168, "ARG_OF_PERICENTER": 283.4491, "MEAN_ANOMALY": 74.752, "EPHEMERIS_TYPE": 0, "CLASSIFICATION_TYPE": "U", "NORAD_CAT_ID": 32432, "ELEMENT_SET_NO": 999, "REV_AT_EPOCH": 70799, "BSTAR": 0.00092211, "MEAN_MOTION_DOT": 4.533e-05, "MEAN_MOTION_DDOT": 0}, "tle": {"line1": "1 32432U 99025DAU 25353.91768795  .00004533  00000+0  92211-3 0  9991", "line2": "2 32432  98.1702  29.9168 0172607 283.4491  74.7520 14.52565689707990"}}, "geometry": {"type": "Point", "coordinates": [-154.5776193883426, -32.935552693973506]}}, {"type": "Feature", "properties": {"norad_id": 32440, "name": "FENGYUN 1C DEB", "group": "fengyun-1c-debris", "lat": 43.27749071607221, "lon": -159.19679954045435, "alt_km": 811.1829337032159, "timestamp": "2025-12-20T18:51:32.000226+00:00", "meta": {"OBJECT_NAME": "FENGYUN 1C DEB", "OBJECT_ID": "1999-025DBC", "EPOCH": "2025-12-17T07:44:52.778112", "MEAN_MOTION": 13.61291637, "ECCENTRICITY": 0.0322189, "INCLINATION": 99.1539, "RA_OF_ASC_NODE": 206.2845, "ARG_OF_PERICENTER": 78.9658, "MEAN_ANOMALY": 284.754, "EPHEMERIS_TYPE": 0, "CLASSIFICATION_TYPE": "U", "NORAD_CAT_ID": 32440, "ELEMENT_SET_NO": 999, "REV_AT_EPOCH": 60348, "BSTAR": 0.0028109, "MEAN_MOTION_DOT": 2.988e-05, "MEAN_MOTION_DDOT": 0}, "tle": {"line1": "1 32440U 99025DBC 25351.32283308  .00002988  00000+0  28109-2 0  9991", "line2": "2 32440  99.1539 206.2845 0322189  78.9658 284.7540 13.61291637603486"}}, "geometry": {"type": "Point", "coordinates": [-159.19679954045435, 43.27749071607221]}}, {"type": "Feature", "properties": {"norad_id": 32447, "name": "FENGYUN 1C DEB", "group": "fengyun-1c-debris", "lat": -35.60550994160311, "lon": -175.79479299967642, "alt_km": 969.5586832197787, "timestamp": "2025-12-20T18:51:32.000237+00:00", "meta": {"OBJECT_NAME": "FENGYUN 1C DEB", "OBJECT_ID": "1999-025DBK", "EPOCH": "2025-12-09T20:22:18.261408", "MEAN_MOTION": 13.96013309, "ECCENTRICITY": 0.00800272, "INCLINATION": 98.9313, "RA_OF_ASC_NODE": 0.0649, "ARG_OF_PERICENTER": 49.1812, "MEAN_ANOMALY": 311.6255, "EPHEMERIS_TYPE": 0, "CLASSIFICATION_TYPE": "U", "NORAD_CAT_ID": 32447, "ELEMENT_SET_NO": 999, "REV_AT_EPOCH": 67838, "BSTAR": 0.00036340481, "MEAN_MOTION_DOT": 4.69e-06, "MEAN_MOTION_DDOT": 0}, "tle": {"line1": "1 32447U 99025DBK 25343.84882247  .00000469  00000+0  36340-3 0  9992", "line2": "2 32447  98.9313   0.0649 0080027  49.1812 311.6255 13.96013309678386"}}, "geometry": {"type": "Point", "coordinates": [-175.79479299967642, -35.60550994160311]}}, {"type": "Feature", "properties": {"norad_id": 32451, "name": "FENGYUN 1C DEB", "group": "fengyun-1c-debris", "lat": -29.838796236800178, "lon": -19.118354512475616, "alt_km": 1069.7370166930368, "timestamp": "2025-12-20T18:51:32.000247+00:00", "meta": {"OBJECT_NAME": "FENGYUN 1C DEB", "OBJECT_ID": "1999-025DBP", "EPOCH": "2025-12-20T03:25:27.113952", "MEAN_MOTION": 13.86606866, "ECCENTRICITY": 0.01850379, "INCLINATION": 99.971, "RA_OF_ASC_NODE": 334.4053, "ARG_OF_PERICENTER": 175.3635, "MEAN_ANOMALY": 184.9287, "EPHEMERIS_TYPE": 0, "CLASSIFICATION_TYPE": "U", "NORAD_CAT_ID": 32451, "ELEMENT_SET_NO": 999, "REV_AT_EPOCH": 61867, "BSTAR": 0.0013319621, "MEAN_MOTION_DOT": 1.723e-05, "MEAN_MOTION_DDOT": 0}, "tle": {"line1": "1 32451U 99025DBP 25354.14267493  .00001723  00000+0  13320-2 0  9998", "line2": "2 32451  99.9710 334.4053 0185037 175.3635 184.9287 13.86606866618675"}}, "geometry": {"type": "Point", "coordinates": [-19.118354512475616, -29.838796236800178]}}, {"type": "Feature", "properties": {"norad_id": 32453, "name": "FENGYUN 1C DEB", "group": "fengyun-1c-debris", "lat": -21.1974388548297, "lon": -91.60929949640374, "alt_km": 954.4290090832064, "timestamp": "2025-12-20T18:51:32.000257+00:00", "meta": {"OBJECT_NAME": "FENGYUN 1C DEB", "OBJECT_ID": "1999-025DBR", "EPOCH": "2025-12-20T12:06:47.634336", "MEAN_MOTION": 14.02265875, "ECCENTRICITY": 0.00963437, "INCLINATION": 99.3721, "RA_OF_ASC_NODE": 264.4295, "ARG_OF_PERICENTER": 184.4323, "MEAN_ANOMALY": 175.5998, "EPHEMERIS_TYPE": 0, "CLASSIFICATION_TYPE": "U", "NORAD_CAT_ID": 32453, "ELEMENT_SET_NO": 999, "REV_AT_EPOCH": 93537, "BSTAR": 0.00034921531, "MEAN_MOTION_DOT": 5.1e-06, "MEAN_MOTION_DDOT": 0}, "tle": {"line1": "1 32453U 99025DBR 25354.50471799  .00000510  00000+0  34922-3 0  9991", "line2": "2 32453  99.3721 264.4295 0096343 184.4323 175.5998 14.02265875935373"}}, "geometry": {"type": "Point", "coordinates": [-91.60929949640374, -21.1974388548297]}}, {"type": "Feature", "properties": {"norad_id": 32455, "name": "FENGYUN 1C DEB", "group": "fengyun-1c-debris", "lat": 55.266656364503625, "lon": 26.47297089336584, "alt_km": 742.5504548274839, "timestamp": "2025-12-20T18:51:32.000267+00:00", "meta": {"OBJECT_NAME": "FENGYUN 1C DEB", "OBJECT_ID": "1999-025DBT", "EPOCH": "2025-12-19T18:08:22.954272", "MEAN_MOTION": 13.92504596, "ECCENTRICITY": 0.02356741, "INCLINATION": 101.733, "RA_OF_ASC_NODE": 187.728, "ARG_OF_PERICENTER": 127.7857, "MEAN_ANOMALY": 234.4892, "EPHEMERIS_TYPE": 0, "CLASSIFICATION_TYPE": "U", "NORAD_CAT_ID": 32455, "ELEMENT_SET_NO": 999, "REV_AT_EPOCH": 64513, "BSTAR": 0.001718498, "MEAN_MOTION_DOT": 2.717e-05, "MEAN_MOTION_DDOT": 0}, "tle": {"line1": "1 32455U 99025DBT 25353.75582123  .00002717  00000+0  17185-2 0  9995", "line2": "2 32455 101.7330 187.7280 0235674 127.7857 234.4892 13.92504596645138"}}, "geometry": {"type": "Point", "coordinates": [26.47297089336584, 55.266656364503625]}}, {"type": "Feature", "properties": {"norad_id": 32456, "name": "FENGYUN 1C DEB", "group": "fengyun-1c-debris", "lat": 30.87578074164627, "lon": -33.78006494541281, "alt_km": 977.6065573771712, "timestamp": "2025-12-20T18:51:32.000277+00:00", "meta": {"OBJECT_NAME": "FENGYUN 1C DEB", "OBJECT_ID": "1999-025DBU", "EPOCH": "2025-12-17T03:48:04.533120", "MEAN_MOTION": 13.35640436, "ECCENTRICITY": 0.03794971, "INCLINATION": 103.6656, "RA_OF_ASC_NODE": 133.0133, "ARG_OF_PERICENTER": 216.4895, "MEAN_ANOMALY": 140.98, "EPHEMERIS_TYPE": 0, "CLASSIFICATION_TYPE": "U", "NORAD_CAT_ID": 32456, "ELEMENT_SET_NO": 999, "REV_AT_EPOCH": 60675, "BSTAR": 0.0016364212, "MEAN_MOTION_DOT": 1.184e-05, "MEAN_MOTION_DDOT": 0}, "tle": {"line1": "1 32456U 99025DBU 25351.15838580  .00001184  00000+0  16364-2 0  9994", "line2": "2 32456 103.6656 133.0133 0379497 216.4895 140.9800 13.35640436606758"}}, "geometry": {"type": "Point", "coordinates": [-33.78006494541281, 30.87578074164627]}}, {"type": "Feature", "properties": {"norad_id": 32458, "name": "FENGYUN 1C DEB", "group": "fengyun-1c-debris", "lat": -60.898873337552025, "lon": 178.79714965462284, "alt_km": 700.8575682696619, "timestamp": "2025-12-20T18:51:32.000287+00:00", "meta": {"OBJECT_NAME": "FENGYUN 1C DEB", "OBJECT_ID": "1999-025DBW", "EPOCH": "2025-12-17T07:38:45.791520", "MEAN_MOTION": 14.62340298, "ECCENTRICITY": 0.00400557, "INCLINATION": 99.0455, "RA_OF_ASC_NODE": 11.634, "ARG_OF_PERICENTER": 359.8936, "MEAN_ANOMALY": 0.2248, "EPHEMERIS_TYPE": 0, "CLASSIFICATION_TYPE": "U", "NORAD_CAT_ID": 32458, "ELEMENT_SET_NO": 999, "REV_AT_EPOCH": 67856, "BSTAR": 0.0011308111, "MEAN_MOTION_DOT": 5.724e-05, "MEAN_MOTION_DDOT": 0}, "tle": {"line1": "1 32458U 99025DBW 25351.31858555  .00005724  00000+0  11308-2 0  9995", "line2": "2 32458  99.0455  11.6340 0040055 359.8936   0.2248 14.62340298678565"}}, "geometry": {"type": "Point", "coordinates": [178.79714965462284, -60.898873337552025]}}, {"type": "Feature", "properties": {"norad_id": 32459, "name": "FENGYUN 1C DEB", "group": "fengyun-1c-debris", "lat": 73.50860295016014, "lon": -141.63762511460195, "alt_km": 658.4766635066871, "timestamp": "2025-12-20T18:51:32.000297+00:00", "meta": {"OBJECT_NAME": "FENGYUN 1C DEB", "OBJECT_ID": "1999-025DBX", "EPOCH": "2025-12-20T11:42:49.844160", "MEAN_MOTION": 14.42836745, "ECCENTRICITY": 0.02136305, "INCLINATION": 98.3014, "RA_OF_ASC_NODE": 8.5228, "ARG_OF_PERICENTER": 162.9004, "MEAN_ANOMALY": 197.9532, "EPHEMERIS_TYPE": 0, "CLASSIFICATION_TYPE": "U", "NORAD_CAT_ID": 32459, "ELEMENT_SET_NO": 999, "REV_AT_EPOCH": 94662, "BSTAR": 0.0003019249, "MEAN_MOTION_DOT": 1.277e-05, "MEAN_MOTION_DDOT": 0}, "tle": {"line1": "1 32459U 99025DBX 25354.48807690  .00001277  00000+0  30192-3 0  9993", "line2": "2 32459  98.3014   8.5228 0213630 162.9004 197.9532 14.42836745946629"}}, "geometry": {"type": "Point", "coordinates": [-141.63762511460195, 73.50860295016014]}}, {"type": "Feature", "properties": {"norad_id": 32460, "name": "FENGYUN 1C DEB", "group": "fengyun-1c-debris", "lat": 47.888712727721995, "lon": 129.88229069308315, "alt_km": 843.1159580448048, "timestamp": "2025-12-20T18:51:32.000307+00:00", "meta": {"OBJECT_NAME": "FENGYUN 1C DEB", "OBJECT_ID": "1999-025DBY", "EPOCH": "2025-12-16T16:07:35.360256", "MEAN_MOTION": 13.89589165, "ECCENTRICITY": 0.01851829, "INCLINATION": 98.0198, "RA_OF_ASC_NODE": 135.3065, "ARG_OF_PERICENTER": 113.3101, "MEAN_ANOMALY": 248.7668, "EPHEMERIS_TYPE": 0, "CLASSIFICATION_TYPE": "U", "NORAD_CAT_ID": 32460, "ELEMENT_SET_NO": 999, "REV_AT_EPOCH": 65308, "BSTAR": 0.0008481014, "MEAN_MOTION_DOT": 1.158e-05, "MEAN_MOTION_DDOT": 0}, "tle": {"line1": "1 32460U 99025DBY 25350.67193704  .00001158  00000+0  84810-3 0  9990", "line2": "2 32460  98.0198 135.3065 0185182 113.3101 248.7668 13.89589165653088"}}, "geometry": {"type": "Point", "coordinates": [129.88229069308315, 47.888712727721995]}}]}